ONEWEB-0553             
1 56055U 23043K   24090.57428131  .00000014  00000+0  42394-5 0  9990
2 56055  87.9137  29.7125 0002196  91.0354 269.1028 13.16595570 52573
ONEWEB-0554             
1 56056U 23043L   24090.56161593  .00000015  00000+0  50042-5 0  9996
2 56056  87.9136  29.7347 0002204  61.2925 298.8427 13.16595786 52551
ONEWEB-0555             
1 56057U 23043M   24090.52361672  .00000083  00000+0  18448-3 0  9990
2 56057  87.9135  29.7157 0002650  84.8742 275.2692 13.16596439 52552
ONEWEB-0557             
1 56058U 23043N   24090.53786953  .00000038  00000+0  65629-4 0  9999
2 56058  87.9135  29.7388 0003052  78.5477 281.5997 13.16595555 52557
ONEWEB-0558             
1 56059U 23043P   24090.39939051  .00000059  00000+0  11256-3 0  9992
2 56059  87.9280  44.9527 0001388  82.8266 277.3026 13.21828865 51393
ONEWEB-0559             
1 56060U 23043Q   24090.61544766  .00000015  00000+0  48640-5 0  9995
2 56060  87.9279  44.9088 0001649  62.4755 297.6547 13.21824039 51439
ONEWEB-0566             
1 56061U 23043R   24090.60915258  .00000026  00000+0  30740-4 0  9996
2 56061  87.9279  44.9109 0001185  78.8830 281.2437 13.21826081 51418
ONEWEB-0568             
1 56062U 23043S   24090.55528496 -.00000074  00000+0 -22739-3 0  9998
2 56062  87.9135  29.6996 0002231  85.7755 274.3631 13.16595497 53486
